ONEWEB-0404             
1 50484U 21132R   23059.52893422  .00000266  00000+0  71500-3 0  9993
2 50484  87.8805 260.3881 0002361  81.7684 278.3711 13.11417267 57805
ONEWEB-0404             
1 50484U 21132R   23059.60523078  .00000232  00000+0  61967-3 0  9998
2 50484  87.8805 260.3729 0002358  81.7344 278.4052 13.11417438 59086
ONEWEB-0404             
1 50484U 21132R   23059.91041720  .00000163  00000+0  42333-3 0  9990
2 50484  87.8805 260.3120 0002350  81.5825 278.5569 13.11417530 57855
ONEWEB-0404             
1 50484U 21132R   23060.82597634  .00000051  00000+0  10718-3 0  9990
2 50484  87.8804 260.1292 0002335  81.0210 279.1182 13.11417648 57979
ONEWEB-0404             
1 50484U 21132R   23060.82597634  .00000051  00000+0  10718-3 0  9990
2 50484  87.8804 260.1292 0002335  81.0210 279.1182 13.11417648 59241
ONEWEB-0404             
1 50484U 21132R   23061.81783870 -.00000650  00000+0 -18707-2 0  9991
2 50484  87.8804 259.9312 0002306  80.8581 279.2808 13.11413317 58105
ONEWEB-0404             
1 50484U 21132R   23062.50451117 -.00000786  00000+0 -22537-2 0  9990
2 50484  87.8803 259.7941 0002307  80.7058 279.4331 13.11412403 58196
ONEWEB-0404             
1 50484U 21132R   23062.50451117 -.00000786  00000+0 -22537-2 0  9990
2 50484  87.8803 259.7941 0002307  80.7058 279.4331 13.11412403 59467
ONEWEB-0404             
1 50484U 21132R   23062.80969880 -.00000695  00000+0 -19979-2 0  9999
2 50484  87.8803 259.7333 0002309  80.9476 279.1914 13.11411882 58238
